"{\n    \"CCSDS_OMM_VERS\": \"2.0\",\n    \"COMMENT\": \"GENERATED VIA SPACE-TRACK.ORG API\",\n    \"CREATION_DATE\": \"2025-08-31T02:26:50\",\n    \"ORIGINATOR\": \"18 SPCS\",\n    \"OBJECT_NAME\": \"NAVSTAR 77 (USA 289)\",\n    \"OBJECT_ID\": \"2018-109A\",\n    \"CENTER_NAME\": \"EARTH\",\n    \"REF_FRAME\": \"TEME\",\n    \"TIME_SYSTEM\": \"UTC\",\n    \"MEAN_ELEMENT_THEORY\": \"SGP4\",\n    \"EPOCH\": \"2025-08-30T20:24:39.610944\",\n    \"MEAN_MOTION\": \"2.0057377151\",\n    \"ECCENTRICITY\": \"0.0034888171\",\n    \"INCLINATION\": \"55.503426\",\n    \"RA_OF_ASC_NODE\": \"103.64977\",\n    \"ARG_OF_PERICENTER\": \"194.82608\",\n    \"MEAN_ANOMALY\": \"175.66672\",\n    \"EPHEMERIS_TYPE\": \"0\",\n    \"CLASSIFICATION_TYPE\": \"U\",\n    \"NORAD_CAT_ID\": \"43873\",\n    \"ELEMENT_SET_NO\": \"999\",\n    \"REV_AT_EPOCH\": \"4925\",\n    \"BSTAR\": \"0\",\n    \"MEAN_MOTION_DOT\": \"-0.000000154397\",\n    \"MEAN_MOTION_DDOT\": \"0\",\n    \"TLE_LINE0\": \"0 NAVSTAR 77 (USA 289)\",\n    \"TLE_LINE1\": \"1 43873U 18109A   25242.85045846 -.00000015  00000-0  00000-0 0  9996\",\n    \"TLE_LINE2\": \"2 43873  55.5034 103.6498 0034888 194.8261 175.6667  2.00573772 49253\",\n    \"SEMIMAJOR_AXIS\": \"26559.450\",\n    \"PERIOD\": \"717.940\",\n    \"APOAPSIS\": \"20273.976\",\n    \"PERIAPSIS\": \"20088.654\",\n    \"OBJECT_TYPE\": \"PAYLOAD\",\n    \"DECAYED\": \"0\"\n}"